SKYCRAFT-4A             
1 64897U 25154J   26162.75157518  .00005374  00000+0  47633-3 0  9991
2 64897  97.6716 227.2863 0003694 281.9562  78.1245 14.96631171 46575
SKYKRAFT-4D             
1 64898U 25154K   26162.75925367  .00004078  00000+0  36716-3 0  9997
2 64898  97.6677 227.0322 0003313 266.0207  94.0635 14.96154579 46480
MICROCARB               
1 64899U 25156A   26162.78083963  .00000405  00000+0  71798-4 0  9990
2 64899  97.9832 240.0146 0015024 291.1517  68.8085 14.72319930 47174
CO3D 3                  
1 64900U 25156B   26162.92180733  .00003805  00000+0  17883-3 0  9993
2 64900  97.4334 241.6903 0001199 131.5714 228.5624 15.20197888 48738
CO3D 4                  
1 64901U 25156C   26162.65866740  .00000293  00000+0  16630-4 0  9991
2 64901  97.4332 241.4307 0000629  25.0477 335.0788 15.20199962 48698
CO3D 2                  
1 64902U 25156D   26162.88861655  .00003970  00000+0  18643-3 0  9997
2 64902  97.4332 241.5564 0001458 109.8301 250.3091 15.20197449 48721
CO3D 1                  
1 64903U 25156E   26162.88877146  .00004992  00000+0  23356-3 0  9992
2 64903  97.4332 241.5569 0001256 115.5249 244.6116 15.20200392 48724
STARLINK-34647          
1 64904U 25157A   26162.58795189  .00021261  00000+0  63887-3 0  9998
2 64904  53.1598 269.2740 0001274  94.7583 265.3565 15.34386358 50492
STARLINK-34273          
1 64905U 25157B   26162.57953197  .00028998  00000+0  86593-3 0  9996
2 64905  53.1593 269.2114 0001097  91.8632 268.2496 15.34404538 50518
STARLINK-34713          
1 64906U 25157C   26162.60941524  .00020379  00000+0  69810-3 0  9990
2 64906  53.1591 269.3980 0001247 129.1970 230.9142 15.30209433 50456
STARLINK-34712          
1 64907U 25157D   26162.58328775  .00042809  00000+0  12697-2 0  9997
2 64907  53.1588 267.8203 0001005  75.2875 284.8239 15.34430423 50523
STARLINK-34702          
1 64908U 25157E   26162.56644866  .00029904  00000+0  97195-3 0  9996
2 64908  53.1603 269.1324 0001300  70.6042 289.5100 15.31686185 50506
STARLINK-34687          
1 64909U 25157F   26162.91668981 -.00004473  00000+0 -12481-3 0  9991
2 64909  53.1602 268.0483 0001090  90.4485 122.8383 15.33533773  5875
STARLINK-34642          
1 64910U 25157G   26162.60836211  .00033903  00000+0  10987-2 0  9998
2 64910  53.1593 268.6887 0000881  92.9354 267.1748 15.31717998 50519
STARLINK-34718          
1 64911U 25157H   26162.91668981 -.00020130  00000+0 -58620-3 0  9997
2 64911  53.1605 268.0963 0001402  75.9047 115.0422 15.34400805  5871
STARLINK-34711          
1 64912U 25157J   26162.58584586  .00022493  00000+0  67514-3 0  9993
2 64912  53.1594 269.2558 0000529  64.3216 295.7842 15.34386573 50508
STARLINK-34659          
1 64913U 25157K   26162.56177926  .00024940  00000+0  81248-3 0  9997
2 64913  53.1617 269.1036 0001463 101.2756 258.8410 15.31711456 50457
STARLINK-34571          
1 64914U 25157L   26162.60899031  .00028087  00000+0  83926-3 0  9992
2 64914  53.1587 269.3929 0001150 102.7021 257.4110 15.34401755 50454
STARLINK-34636          
1 64915U 25157M   26162.58374110  .00027527  00000+0  82261-3 0  9995
2 64915  53.1598 269.2399 0001223 104.8506 255.2632 15.34408546 50505
STARLINK-34695          
1 64916U 25157N   26162.55486892  .00030436  00000+0  90832-3 0  9990
2 64916  53.1584 261.9660 0001178  51.3182 308.7926 15.34398181 50600
STARLINK-34653          
1 64917U 25157P   26162.59912102  .00026057  00000+0  84843-3 0  9992
2 64917  53.1590 269.3321 0001270 103.3721 256.7422 15.31703192 50459
STARLINK-34611          
1 64918U 25157Q   26162.57532309  .00026249  00000+0  78509-3 0  9993
2 64918  53.1592 269.1889 0001083  92.5629 267.5498 15.34408109 50509
STARLINK-34599          
1 64919U 25157R   26162.60519113  .00013957  00000+0  48238-3 0  9994
2 64919  53.1598 269.3591 0001153  75.9723 284.1406 15.30204741 50502
STARLINK-34069          
1 64920U 25157S   26162.60267685  .00036219  00000+0  10779-2 0  9994
2 64920  53.1601 269.3574 0001026 100.0248 260.0870 15.34402438 50506
STARLINK-34699          
1 64921U 25157T   26162.57322483  .00033641  00000+0  10022-2 0  9996
2 64921  53.1597 269.1753 0001353  45.1160 314.9952 15.34402934 50504
STARLINK-34700          
1 64922U 25157U   26162.54092487  .00027254  00000+0  92849-3 0  9993
2 64922  53.1591 269.6790 0003766 163.7242 196.3880 15.30210857 50445
STARLINK-34643          
1 64923U 25157V   26162.59426523  .00027166  00000+0  81152-3 0  9998
2 64923  53.1593 269.3031 0001422  83.0220 277.0944 15.34428049 50503
STARLINK-34199          
1 64924U 25157W   26162.61302753  .00016779  00000+0  55122-3 0  9996
2 64924  53.1616 268.7071 0001037  98.4162 261.6957 15.31700936 50467
STARLINK-34579          
1 64925U 25157X   26162.59636367  .00028092  00000+0  83946-3 0  9991
2 64925  53.1598 269.3151 0001249  95.4012 264.7133 15.34399624 50505
STARLINK-34543          
1 64926U 25157Y   26162.59445385  .00019734  00000+0  64562-3 0  9996
2 64926  53.1605 269.3036 0001985  99.3206 260.8020 15.31718248 50452
