OBJECT_NAME,OBJECT_ID,EPOCH,MEAN_MOTION,ECCENTRICITY,INCLINATION,RA_OF_ASC_NODE,ARG_OF_PERICENTER,MEAN_ANOMALY,EPHEMERIS_TYPE,CLASSIFICATION_TYPE,NORAD_CAT_ID,ELEMENT_SET_NO,REV_AT_EPOCH,BSTAR,MEAN_MOTION_DOT,MEAN_MOTION_DDOT
SKYCRAFT-4A,2025-154J,2026-06-11T18:02:16.095552,14.96631171,.00036945,97.6716,227.2863,281.9562,78.1245,0,U,64897,999,4657,.47632675E-3,.5374E-4,0
SKYKRAFT-4D,2025-154K,2026-06-11T18:13:19.517088,14.96154579,.00033132,97.6677,227.0322,266.0207,94.0635,0,U,64898,999,4648,.36716468E-3,.4078E-4,0
MICROCARB,2025-156A,2026-06-11T18:44:24.544032,14.72319930,.00150247,97.9832,240.0146,291.1517,68.8085,0,U,64899,999,4717,.7179799E-4,.405E-5,0
CO3D 3,2025-156B,2026-06-11T22:07:24.153312,15.20197888,.00011999,97.4334,241.6903,131.5714,228.5624,0,U,64900,999,4873,.17882676E-3,.3805E-4,0
CO3D 4,2025-156C,2026-06-11T15:48:28.863360,15.20199962,.00006297,97.4332,241.4307,25.0477,335.0788,0,U,64901,999,4869,.16629939E-4,.293E-5,0
CO3D 2,2025-156D,2026-06-11T21:19:36.469920,15.20197449,.00014583,97.4332,241.5564,109.8301,250.3091,0,U,64902,999,4872,.18642591E-3,.397E-4,0
CO3D 1,2025-156E,2026-06-11T21:19:49.854144,15.20200392,.00012561,97.4332,241.5569,115.5249,244.6116,0,U,64903,999,4872,.23356123E-3,.4992E-4,0
STARLINK-34647,2025-157A,2026-06-11T14:06:39.043296,15.34386358,.0001274,53.1598,269.2740,94.7583,265.3565,0,U,64904,999,5049,.63887E-3,.21261E-3,0
STARLINK-34273,2025-157B,2026-06-11T13:54:31.562208,15.34404538,.0001097,53.1593,269.2114,91.8632,268.2496,0,U,64905,999,5051,.86593E-3,.28998E-3,0
STARLINK-34713,2025-157C,2026-06-11T14:37:33.476736,15.30209433,.00012478,53.1591,269.3980,129.1970,230.9142,0,U,64906,999,5045,.69810029E-3,.20379E-3,0
STARLINK-34712,2025-157D,2026-06-11T13:59:56.061600,15.34430423,.0001005,53.1588,267.8203,75.2875,284.8239,0,U,64907,999,5052,.12697E-2,.42809E-3,0
STARLINK-34702,2025-157E,2026-06-11T13:35:41.164224,15.31686185,.00013,53.1603,269.1324,70.6042,289.5100,0,U,64908,999,5050,.97195E-3,.29904E-3,0
STARLINK-34687,2025-157F,2026-06-11T22:00:01.999584,15.33533773,.00010902,53.1602,268.0483,90.4485,122.8383,0,U,64909,999,587,-.124808E-3,-.4473E-4,0
STARLINK-34642,2025-157G,2026-06-11T14:36:02.486304,15.31717998,.00008812,53.1593,268.6887,92.9354,267.1748,0,U,64910,999,5051,.10986936E-2,.33903E-3,0
STARLINK-34718,2025-157H,2026-06-11T22:00:01.999584,15.34400805,.00014025,53.1605,268.0963,75.9047,115.0422,0,U,64911,999,587,-.58619696E-3,-.2013E-3,0
STARLINK-34711,2025-157J,2026-06-11T14:03:37.082304,15.34386573,.0000529,53.1594,269.2558,64.3216,295.7842,0,U,64912,999,5050,.67514E-3,.22493E-3,0
STARLINK-34659,2025-157K,2026-06-11T13:28:57.728064,15.31711456,.00014636,53.1617,269.1036,101.2756,258.8410,0,U,64913,999,5045,.81247846E-3,.2494E-3,0
STARLINK-34571,2025-157L,2026-06-11T14:36:56.762784,15.34401755,.00011508,53.1587,269.3929,102.7021,257.4110,0,U,64914,999,5045,.83926331E-3,.28087E-3,0
STARLINK-34636,2025-157M,2026-06-11T14:00:35.231040,15.34408546,.0001223,53.1598,269.2399,104.8506,255.2632,0,U,64915,999,5050,.82261E-3,.27527E-3,0
STARLINK-34695,2025-157N,2026-06-11T13:19:00.674688,15.34398181,.0001178,53.1584,261.9660,51.3182,308.7926,0,U,64916,999,5060,.90832E-3,.30436E-3,0
STARLINK-34653,2025-157P,2026-06-11T14:22:44.056128,15.31703192,.000127,53.1590,269.3321,103.3721,256.7422,0,U,64917,999,5045,.84843E-3,.26057E-3,0
STARLINK-34611,2025-157Q,2026-06-11T13:48:27.914976,15.34408109,.0001083,53.1592,269.1889,92.5629,267.5498,0,U,64918,999,5050,.78509E-3,.26249E-3,0
STARLINK-34599,2025-157R,2026-06-11T14:31:28.513632,15.30204741,.00011539,53.1598,269.3591,75.9723,284.1406,0,U,64919,999,5050,.48238101E-3,.13957E-3,0
STARLINK-34069,2025-157S,2026-06-11T14:27:51.279840,15.34402438,.00010269,53.1601,269.3574,100.0248,260.0870,0,U,64920,999,5050,.10778526E-2,.36219E-3,0
STARLINK-34699,2025-157T,2026-06-11T13:45:26.625312,15.34402934,.0001353,53.1597,269.1753,45.1160,314.9952,0,U,64921,999,5050,.10022E-2,.33641E-3,0
STARLINK-34700,2025-157U,2026-06-11T12:58:55.908768,15.30210857,.0003766,53.1591,269.6790,163.7242,196.3880,0,U,64922,999,5044,.92849E-3,.27254E-3,0
STARLINK-34643,2025-157V,2026-06-11T14:15:44.515872,15.34428049,.0001422,53.1593,269.3031,83.0220,277.0944,0,U,64923,999,5050,.81152E-3,.27166E-3,0
STARLINK-34199,2025-157W,2026-06-11T14:42:45.578592,15.31700936,.00010376,53.1616,268.7071,98.4162,261.6957,0,U,64924,999,5046,.55121679E-3,.16779E-3,0
STARLINK-34579,2025-157X,2026-06-11T14:18:45.821088,15.34399624,.0001249,53.1598,269.3151,95.4012,264.7133,0,U,64925,999,5050,.83946E-3,.28092E-3,0
STARLINK-34543,2025-157Y,2026-06-11T14:16:00.812640,15.31718248,.0001985,53.1605,269.3036,99.3206,260.8020,0,U,64926,999,5045,.64562E-3,.19734E-3,0
